[
    {
        "Altitude(m)": 604969.0891141823,
        "Argument of Periapsis(deg)": 0.0,
        "Eccentricity": 0.0,
        "Inclination(deg)": 60.0,
        "Latitude(deg)": -0.09264220839647914,
        "Longitude(deg)": 4.977527792354456,
        "Mean Anomaly(deg)": 0.0,
        "RAAN(deg)": 105.0,
        "Satellite Name": "Test1 462",
        "Satellite Number": 462,
        "Semi-Major Axis(m)": 6980739.136638005,
        "Time(s)": 0
    },
    {
        "Altitude(m)": 604900.028743034,
        "Argument of Periapsis(deg)": 0.00010418945913296404,
        "Eccentricity": 0.0,
        "Inclination(deg)": 60.0,
        "Latitude(deg)": 0.4477842357690107,
        "Longitude(deg)": 5.245649728934917,
        "Mean Anomaly(deg)": 0.6201061454618275,
        "RAAN(deg)": 104.99957995086028,
        "Satellite Name": "Test1 462",
        "Satellite Number": 462,
        "Semi-Major Axis(m)": 6980739.136638005,
        "Time(s)": 10
    }
]